{
  "norad_id": 57779,
  "name": "STARLINK-30359",
  "history": [
    {
      "epoch": "2026-03-28T16:25:54.662880",
      "apogee_km": 483.6525676235451,
      "perigee_km": 482.4738134308136,
      "latitude_deg": -16.8448730539113,
      "longitude_deg": 23.62740319990553,
      "semi_major_axis_km": 6861.200190527179,
      "eccentricity": 8.59e-05,
      "inclination_deg": 43.0043,
      "raan_deg": 75.9498,
      "arg_perigee_deg": 285.672,
      "mean_anomaly_deg": 74.4037,
      "mean_motion_rev_day": 15.27575293
    }
  ]
}